<?xml version="1.0" encoding="UTF-8"?>
<ndm xmlns:xsi="http://www.w3.org/2001/XMLSchema-instance" xsi:noNamespaceSchemaLocation="http://sanaregistry.org/r/ndmxml/ndmxml-1.0-master.xsd"><omm id="CCSDS_OMM_VERS" version="2.0"><header><COMMENT>GENERATED VIA SPACE-TRACK.ORG API</COMMENT><CREATION_DATE>2023-05-21T02:46:43</CREATION_DATE><ORIGINATOR>18 SPCS</ORIGINATOR></header><body><segment><metadata><OBJECT_NAME>COSMOS 1408 DEB</OBJECT_NAME><OBJECT_ID>1982-092AXN</OBJECT_ID><CENTER_NAME>EARTH</CENTER_NAME><REF_FRAME>TEME</REF_FRAME><TIME_SYSTEM>UTC</TIME_SYSTEM><MEAN_ELEMENT_THEORY>SGP4</MEAN_ELEMENT_THEORY></metadata><data><meanElements><EPOCH>2023-05-20T21:27:24.324192</EPOCH><MEAN_MOTION>15.36889533</MEAN_MOTION><ECCENTRICITY>0.00164780</ECCENTRICITY><INCLINATION>82.7245</INCLINATION><RA_OF_ASC_NODE>305.2576</RA_OF_ASC_NODE><ARG_OF_PERICENTER>257.9129</ARG_OF_PERICENTER><MEAN_ANOMALY>102.0269</MEAN_ANOMALY></meanElements><tleParameters><EPHEMERIS_TYPE>0</EPHEMERIS_TYPE><CLASSIFICATION_TYPE>U</CLASSIFICATION_TYPE><NORAD_CAT_ID>50967</NORAD_CAT_ID><ELEMENT_SET_NO>999</ELEMENT_SET_NO><REV_AT_EPOCH>7762</REV_AT_EPOCH><BSTAR>0.00064407000000</BSTAR><MEAN_MOTION_DOT>0.00023397</MEAN_MOTION_DOT><MEAN_MOTION_DDOT>0.0000000000000</MEAN_MOTION_DDOT></tleParameters><userDefinedParameters><USER_DEFINED parameter="SEMIMAJOR_AXIS">6833.451</USER_DEFINED><USER_DEFINED parameter="PERIOD">93.696</USER_DEFINED><USER_DEFINED parameter="APOAPSIS">466.576</USER_DEFINED><USER_DEFINED parameter="PERIAPSIS">444.056</USER_DEFINED><USER_DEFINED parameter="OBJECT_TYPE">DEBRIS</USER_DEFINED><USER_DEFINED parameter="RCS_SIZE">SMALL</USER_DEFINED><USER_DEFINED parameter="COUNTRY_CODE">CIS</USER_DEFINED><USER_DEFINED parameter="LAUNCH_DATE">1982-09-16</USER_DEFINED><USER_DEFINED parameter="SITE">PKMTR</USER_DEFINED><USER_DEFINED parameter="DECAY_DATE"/><USER_DEFINED parameter="FILE">3913175</USER_DEFINED><USER_DEFINED parameter="GP_ID">232209801</USER_DEFINED></userDefinedParameters></data></segment></body></omm></ndm>